[{"OBJECT_NAME":"VSP RF C1","OBJECT_ID":"2024-043AQ","EPOCH":"2026-03-09T21:56:05.358624","MEAN_MOTION":15.29409663,"ECCENTRICITY":0.00093965,"INCLINATION":97.5441,"RA_OF_ASC_NODE":205.1792,"ARG_OF_PERICENTER":219.6172,"MEAN_ANOMALY":140.4382,"EPHEMERIS_TYPE":0,"CLASSIFICATION_TYPE":"U","NORAD_CAT_ID":59136,"ELEMENT_SET_NO":999,"REV_AT_EPOCH":11190,"BSTAR":0.00026222052,"MEAN_MOTION_DOT":7.409e-5,"MEAN_MOTION_DDOT":0},{"OBJECT_NAME":"STARLINK-35818","OBJECT_ID":"2025-265AA","EPOCH":"2026-03-09T22:04:38.697312","MEAN_MOTION":15.27597899,"ECCENTRICITY":0.00011308,"INCLINATION":42.9979,"RA_OF_ASC_NODE":277.0618,"ARG_OF_PERICENTER":295.7589,"MEAN_ANOMALY":64.3146,"EPHEMERIS_TYPE":0,"CLASSIFICATION_TYPE":"U","NORAD_CAT_ID":66540,"ELEMENT_SET_NO":999,"REV_AT_EPOCH":1714,"BSTAR":0.0010790483,"MEAN_MOTION_DOT":0.00029566,"MEAN_MOTION_DDOT":0}]
